      2.10          N: GNSS NAV DATA                        RINEX VERSION / TYPE
fic2rin                                 09/09/2021 00:17:30 PGM / RUN BY / DATE
                                                            END OF HEADER
25 21  9  9  0  0  0.0 2.051088958979e-04 6.366462912410e-12 0.000000000000e+00
    2.800000000000e+01-6.281250000000e+00 5.189144720135e-09 7.753984863450e-02
   -2.831220626831e-07 9.866415522993e-03 2.833083271980e-06 5.153570119858e+03
    3.456000000000e+05-1.862645149231e-08-1.140714420203e+00 8.381903171539e-08
    9.593170563660e-01 3.221562500000e+02 9.676548584804e-01-8.803580990199e-09
   -2.257236880119e-10 1.000000000000e+00 2.174000000000e+03 0.000000000000e+00
    2.400000000000e+00 0.000000000000e+00 5.587935447693e-09 2.800000000000e+01
    3.384000000000e+05 4.000000000000e+00
17 21  9  9  0  0  0.0 5.018692463636e-04 5.684341886081e-12 0.000000000000e+00
    2.200000000000e+01-6.743750000000e+01 3.735155584223e-09-2.421304370097e+00
   -3.408640623093e-06 1.350327639375e-02 1.187063753605e-05 5.153662067413e+03
    3.456000000000e+05 2.179294824600e-07-2.946390011256e-02-5.215406417847e-08
    9.816388075508e-01 1.616250000000e+02-1.558337970140e+00-7.447095915723e-09
   -4.589476884420e-10 1.000000000000e+00 2.174000000000e+03 0.000000000000e+00
    2.400000000000e+00 0.000000000000e+00-1.117587089539e-08 2.200000000000e+01
    3.384000000000e+05 4.000000000000e+00
16 21  9  9  0  0  0.0-3.874157555401e-04-6.366462912410e-12 0.000000000000e+00
    4.800000000000e+01-2.725000000000e+01 4.747340602934e-09-1.579542123595e+00
   -1.352280378342e-06 1.221251895186e-02 3.302469849586e-06 5.153745843887e+03
    3.456000000000e+05 1.639127731323e-07-1.047189676796e+00-1.247972249985e-07
    9.720080535684e-01 3.198750000000e+02 6.793403842938e-01-8.313560578882e-09
   -1.914365455291e-10 1.000000000000e+00 2.174000000000e+03 0.000000000000e+00
    2.400000000000e+00 0.000000000000e+00-1.024454832077e-08 4.800000000000e+01
    3.384000000000e+05 4.000000000000e+00
12 21  9  9  0  0  0.0-9.465171024203e-05-5.456968210638e-12 0.000000000000e+00
    1.040000000000e+02-1.709375000000e+01 4.821272253913e-09 2.430216497758e-01
   -9.108334779739e-07 8.239697432145e-03 3.453344106674e-06 5.153679302216e+03
    3.456000000000e+05-4.470348358154e-08-1.065897082595e+00 4.842877388000e-08
    9.719704712030e-01 3.182500000000e+02 1.229779937682e+00-8.588214876479e-09
   -2.732256666600e-10 1.000000000000e+00 2.174000000000e+03 0.000000000000e+00
    3.400000000000e+00 0.000000000000e+00-1.257285475731e-08 1.040000000000e+02
    3.384000000000e+05 4.000000000000e+00
29 21  9  9  0  0  0.0-4.088059067726e-04-5.684341886081e-12 0.000000000000e+00
    7.300000000000e+01-5.000000000000e+01 3.751584839996e-09-2.436754154306e+00
   -2.713873982430e-06 1.961573841982e-03 1.189857721329e-05 5.153588169098e+03
    3.456000000000e+05 0.000000000000e+00-1.680108163820e-02 8.009374141693e-08
    9.835629032400e-01 1.633437500000e+02 2.327490511654e+00-7.652818770619e-09
   -4.489472718845e-10 1.000000000000e+00 2.174000000000e+03 0.000000000000e+00
    3.400000000000e+00 0.000000000000e+00-1.024454832077e-08 7.300000000000e+01
    3.384000000000e+05 4.000000000000e+00
15 21  9  9  0  0  0.0-1.224759034812e-04 2.728484105319e-12 0.000000000000e+00
    5.900000000000e+01-9.493750000000e+01 5.159857785931e-09 2.924494279371e+00
   -5.008652806282e-06 1.362805336248e-02 1.005083322525e-05 5.153681087494e+03
    3.456000000000e+05 3.725290298462e-09 2.931661284740e+00-2.086162567139e-07
    9.297870777067e-01 1.699375000000e+02 1.022359060604e+00-8.180697901761e-09
   -3.600149960697e-10 1.000000000000e+00 2.174000000000e+03 0.000000000000e+00
    2.400000000000e+00 0.000000000000e+00-1.071020960808e-08 5.900000000000e+01
    3.384000000000e+05 4.000000000000e+00
31 21  9  9  0  0  0.0-1.387442462146e-04-2.046363078989e-12 0.000000000000e+00
    6.100000000000e+01 8.846875000000e+01 4.765555647378e-09 5.099770489454e-01
    4.738569259644e-06 1.015745336190e-02 9.566545486450e-06 5.153608629227e+03
    3.456000000000e+05 1.043081283569e-07-2.160425111932e+00 1.732259988785e-07
    9.556464515392e-01 1.897187500000e+02 2.898228934068e-01-8.311774790211e-09
    4.064455015151e-10 1.000000000000e+00 2.174000000000e+03 0.000000000000e+00
    2.400000000000e+00 0.000000000000e+00-1.303851604462e-08 6.100000000000e+01
    3.384000000000e+05 4.000000000000e+00
27 21  9  9  0  0  0.0-1.902170479298e-04-5.343281372916e-12 0.000000000000e+00
    5.200000000000e+01-6.231250000000e+01 3.880161624306e-09-2.505046221893e+00
   -3.201887011528e-06 9.499369654804e-03 1.209974288940e-05 5.153648023605e+03
    3.456000000000e+05 7.264316082001e-08-9.082693667791e-02-1.005828380585e-07
    9.753261024527e-01 1.515000000000e+02 6.358353159960e-01-7.690320332710e-09
   -4.528760069606e-10 1.000000000000e+00 2.174000000000e+03 0.000000000000e+00
    2.400000000000e+00 0.000000000000e+00 1.862645149231e-09 5.200000000000e+01
    3.384000000000e+05 4.000000000000e+00
22 21  9  9  0  0  0.0-5.179084837437e-04 9.322320693173e-12 0.000000000000e+00
    7.200000000000e+01 8.500000000000e+00 5.583804016422e-09 2.721268277461e+00
    2.495944499969e-07 6.755939102732e-03 2.214685082436e-06 5.153733131409e+03
    3.456000000000e+05 5.960464477539e-08 1.901009952421e+00 7.264316082001e-08
    9.359719574118e-01 3.213125000000e+02-8.973527356005e-01-8.789651838566e-09
    1.003613233091e-10 1.000000000000e+00 2.174000000000e+03 0.000000000000e+00
    2.400000000000e+00 0.000000000000e+00-1.769512891769e-08 7.200000000000e+01
    3.384000000000e+05 4.000000000000e+00
32 21  9  9  0  0  0.0 1.172535121441e-06-3.296918293927e-12 0.000000000000e+00
    7.600000000000e+01-6.575000000000e+01 4.534831751088e-09-1.741789385068e+00
   -3.419816493988e-06 5.081583396532e-03 1.134909689426e-05 5.153719797134e+03
    3.456000000000e+05 7.264316082001e-08 3.043918958940e+00 3.725290298462e-08
    9.580295436274e-01 1.574375000000e+02-2.371121902928e+00-7.985689778890e-09
   -2.717970357232e-10 1.000000000000e+00 2.174000000000e+03 0.000000000000e+00
    2.400000000000e+00 0.000000000000e+00 4.656612873077e-10 7.600000000000e+01
    3.384000000000e+05 4.000000000000e+00
21 21  9  9  0  0  0.0 1.417165622115e-04 2.046363078989e-12 0.000000000000e+00
    5.700000000000e+01 9.915625000000e+01 4.223390206869e-09-2.329933861337e+00
    5.370005965233e-06 2.408152713906e-02 1.142919063568e-05 5.153648326874e+03
    3.456000000000e+05 1.639127731323e-07 8.806114419612e-01 4.395842552185e-07
    9.581187830931e-01 1.515000000000e+02-1.087148542432e+00-7.711392639028e-09
    5.239503960657e-10 1.000000000000e+00 2.174000000000e+03 0.000000000000e+00
    2.400000000000e+00 0.000000000000e+00-1.024454832077e-08 5.700000000000e+01
    3.384000000000e+05 4.000000000000e+00
26 21  9  9  0  0  0.0 1.320685259998e-04 4.206412995700e-12 0.000000000000e+00
    7.600000000000e+01-7.437500000000e+00 5.586661278295e-09-5.966437713737e-01
   -4.395842552185e-07 6.081151426770e-03 2.697110176086e-06 5.153611705780e+03
    3.456000000000e+05 1.154839992523e-07-1.184750583354e+00 9.313225746155e-09
    9.401960689973e-01 3.168750000000e+02 2.927038706454e-01-8.895370527888e-09
   -1.710785546799e-10 1.000000000000e+00 2.174000000000e+03 0.000000000000e+00
    2.400000000000e+00 0.000000000000e+00 6.984919309616e-09 7.600000000000e+01
    3.384000000000e+05 4.000000000000e+00
20 21  9  9  0  0  0.0 5.192370153964e-04-2.273736754432e-13 0.000000000000e+00
    5.800000000000e+01 1.728125000000e+01 5.394510417298e-09 2.768352891250e+00
    9.518116712570e-07 5.522862542421e-03 2.322718501091e-06 5.153645566940e+03
    3.456000000000e+05-1.303851604462e-07 1.854818110722e+00 6.146728992462e-08
    9.392580283698e-01 3.193750000000e+02 2.979088834322e+00-8.745007121791e-09
    1.971510692762e-10 1.000000000000e+00 2.174000000000e+03 0.000000000000e+00
    2.400000000000e+00 0.000000000000e+00-8.381903171539e-09 5.800000000000e+01
    3.384000000000e+05 4.000000000000e+00
23 21  9  9  0  0  0.0 5.997391417623e-05-4.888534022029e-12 0.000000000000e+00
    1.020000000000e+02-1.440625000000e+01 4.916276211209e-09 1.175711549014e+00
   -7.394701242447e-07 1.648466684856e-03 2.626329660416e-06 5.153665061951e+03
    3.456000000000e+05 3.725290298462e-08 1.977309425000e+00 5.587935447693e-09
    9.651514516206e-01 3.320000000000e+02 2.668926927954e+00-8.506425755348e-09
    1.785788670980e-11 1.000000000000e+00 2.174000000000e+03 0.000000000000e+00
    2.400000000000e+00 0.000000000000e+00-8.381903171539e-09 6.140000000000e+02
    3.384000000000e+05 4.000000000000e+00
18 21  9  9  0  0  0.0 3.244695253670e-04-4.092726157978e-12 0.000000000000e+00
    8.500000000000e+01 8.959375000000e+01 4.206246635627e-09 1.910028169437e+00
    4.699453711510e-06 1.914031570777e-03 9.508803486824e-06 5.153649749756e+03
    3.456000000000e+05-8.940696716309e-08 9.773500291346e-01 2.421438694000e-08
    9.690660097405e-01 2.011875000000e+02 2.939812206384e+00-7.948188216800e-09
    4.571618997710e-10 1.000000000000e+00 2.174000000000e+03 0.000000000000e+00
    2.400000000000e+00 0.000000000000e+00-8.381903171539e-09 3.410000000000e+02
    3.384000000000e+05 4.000000000000e+00
19 21  9  9  0  0  0.0 5.045114085078e-05 5.002220859751e-12 0.000000000000e+00
    1.780000000000e+02-5.800000000000e+01 3.829088068316e-09-4.704198581896e-02
   -2.937391400337e-06 9.146731114015e-03 1.203268766403e-05 5.153651424408e+03
    3.456000000000e+05-1.937150955200e-07 1.554387032173e-02-2.384185791016e-07
    9.802687920842e-01 1.648437500000e+02 1.936963430279e+00-7.781752712664e-09
   -4.260891768959e-10 1.000000000000e+00 2.174000000000e+03 0.000000000000e+00
    3.400000000000e+00 0.000000000000e+00-1.536682248116e-08 1.780000000000e+02
    3.384000000000e+05 4.000000000000e+00
